[{"OBJECT_NAME":"SPIRONE","OBJECT_ID":"2025-274H","EPOCH":"2026-03-09T18:01:36.945120","MEAN_MOTION":14.93072072,"ECCENTRICITY":0.00119665,"INCLINATION":97.7435,"RA_OF_ASC_NODE":359.5247,"ARG_OF_PERICENTER":353.7886,"MEAN_ANOMALY":6.3183,"EPHEMERIS_TYPE":0,"CLASSIFICATION_TYPE":"U","NORAD_CAT_ID":66657,"ELEMENT_SET_NO":999,"REV_AT_EPOCH":1538,"BSTAR":0.00040236773,"MEAN_MOTION_DOT":4.139e-5,"MEAN_MOTION_DDOT":0},{"OBJECT_NAME":"CZ-2C DEB","OBJECT_ID":"2009-061C","EPOCH":"2026-03-09T15:20:14.637120","MEAN_MOTION":14.99171478,"ECCENTRICITY":0.0032615,"INCLINATION":97.8461,"RA_OF_ASC_NODE":101.0533,"ARG_OF_PERICENTER":313.5449,"MEAN_ANOMALY":164.4427,"EPHEMERIS_TYPE":0,"CLASSIFICATION_TYPE":"U","NORAD_CAT_ID":36090,"ELEMENT_SET_NO":999,"REV_AT_EPOCH":86976,"BSTAR":0.0014405,"MEAN_MOTION_DOT":0.00017697,"MEAN_MOTION_DDOT":0}]
